IRIDIUM 57 [-]          
1 25273U 98019B   24045.87668757  .00000962  00000+0  33060-3 0  9996
2 25273  86.4008 349.7600 0002145  85.4464 274.6977 14.35085449354736
IRIDIUM 63 [-]          
1 25286U 98021B   24045.94617459  .00000747  00000+0  25248-3 0  9994
2 25286  86.3964 286.6582 0002218  82.6823 277.4626 14.35606222353770
IRIDIUM 69 [-]          
1 25319U 98026A   24045.95782471  .00000781  00000+0  24295-3 0  9993
2 25319  86.3985 301.4116 0002578 141.8095 218.3287 14.39799926352782
IRIDIUM 71 [-]          
1 25320U 98026B   24045.70735928  .00000894  00000+0  27710-3 0  9993
2 25320  86.3969 296.3064 0000259 177.3992 182.7209 14.40121554353264
IRIDIUM 73 [-]          
1 25344U 98032C   24045.94854241  .00001127  00000+0  28412-3 0  9992
2 25344  86.4379 253.7967 0001975 105.5901 254.5521 14.50294095359762
IRIDIUM 82 [-]          
1 25467U 98051A   24045.87979043  .00025033  00000+0  13660-2 0  9999
2 25467  86.3936 344.0422 0135747 313.3871  45.6122 15.06566167349901
IRIDIUM 2 [-]           
1 25527U 98066A   24045.94876646  .00087703  00000+0  13052-2 0  9992
2 25527  85.5148  22.1956 0008323  89.4075 270.8139 15.54788344388602
